{"type": "FeatureCollection", "features": [ {"type": "Feature", "properties": {"norad_id": 34976, "name": "COSMOS 2251 DEB", "group": "cosmos-2251-debris", "lat": 38.79641236414992, "lon": 117.51089666953729, "alt_km": 663.3220322737543, "timestamp": "2025-12-10T09:57:45.093581+00:00", "meta": {"OBJECT_NAME": "COSMOS 2251 DEB", "OBJECT_ID": "1993-036AFF", "EPOCH": "2025-12-10T04:32:22.490016", "MEAN_MOTION": 14.7647087, "ECCENTRICITY": 0.0047845, "INCLINATION": 74.0577, "RA_OF_ASC_NODE": 311.2379, "ARG_OF_PERICENTER": 358.5419, "MEAN_ANOMALY": 19.8404, "EPHEMERIS_TYPE": 0, "CLASSIFICATION_TYPE": "U", "NORAD_CAT_ID": 34976, "ELEMENT_SET_NO": 999, "REV_AT_EPOCH": 88236, "BSTAR": 0.0023407, "MEAN_MOTION_DOT": 0.00016612, "MEAN_MOTION_DDOT": 0}, "tle": {"line1": "1 34976U 93036AFF 25344.18914919  .00016612  00000+0  23407-2 0  9993", "line2": "2 34976  74.0577 311.2379 0047845 358.5419  19.8404 14.76470870882367"}}, "geometry": {"type": "Point", "coordinates": [117.51089666953729, 38.79641236414992]}}, {"type": "Feature", "properties": {"norad_id": 34979, "name": "COSMOS 2251 DEB", "group": "cosmos-2251-debris", "lat": 15.222908112244072, "lon": 87.36999144947318, "alt_km": 666.318988340121, "timestamp": "2025-12-10T09:57:45.093591+00:00", "meta": {"OBJECT_NAME": "COSMOS 2251 DEB", "OBJECT_ID": "1993-036AFJ", "EPOCH": "2025-12-10T04:21:14.489280", "MEAN_MOTION": 14.79267553, "ECCENTRICITY": 0.0049102, "INCLINATION": 74.0397, "RA_OF_ASC_NODE": 272.2961, "ARG_OF_PERICENTER": 350.7379, "MEAN_ANOMALY": 9.2886, "EPHEMERIS_TYPE": 0, "CLASSIFICATION_TYPE": "U", "NORAD_CAT_ID": 34979, "ELEMENT_SET_NO": 999, "REV_AT_EPOCH": 88182, "BSTAR": 0.0020199, "MEAN_MOTION_DOT": 0.00015328, "MEAN_MOTION_DDOT": 0}, "tle": {"line1": "1 34979U 93036AFJ 25344.18141770  .00015328  00000+0  20199-2 0  9991", "line2": "2 34979  74.0397 272.2961 0049102 350.7379   9.2886 14.79267553881822"}}, "geometry": {"type": "Point", "coordinates": [87.36999144947318, 15.222908112244072]}}, {"type": "Feature", "properties": {"norad_id": 34990, "name": "COSMOS 2251 DEB", "group": "cosmos-2251-debris", "lat": -35.22938638198005, "lon": 87.3010617747858, "alt_km": 758.827969858502, "timestamp": "2025-12-10T09:57:45.093601+00:00", "meta": {"OBJECT_NAME": "COSMOS 2251 DEB", "OBJECT_ID": "1993-036AFN", "EPOCH": "2025-12-07T01:03:28.213920", "MEAN_MOTION": 14.42350123, "ECCENTRICITY": 0.00162731, "INCLINATION": 74.0455, "RA_OF_ASC_NODE": 261.8923, "ARG_OF_PERICENTER": 325.0179, "MEAN_ANOMALY": 34.9906, "EPHEMERIS_TYPE": 0, "CLASSIFICATION_TYPE": "U", "NORAD_CAT_ID": 34990, "ELEMENT_SET_NO": 999, "REV_AT_EPOCH": 87264, "BSTAR": 0.00072596004, "MEAN_MOTION_DOT": 2.377e-05, "MEAN_MOTION_DDOT": 0}, "tle": {"line1": "1 34990U 93036AFN 25341.04407655  .00002377  00000+0  72596-3 0  9992", "line2": "2 34990  74.0455 261.8923 0016273 325.0179  34.9906 14.42350123872642"}}, "geometry": {"type": "Point", "coordinates": [87.3010617747858, -35.22938638198005]}}, {"type": "Feature", "properties": {"norad_id": 34997, "name": "COSMOS 2251 DEB", "group": "cosmos-2251-debris", "lat": -3.0006520711243736, "lon": -45.295045992153696, "alt_km": 714.4365708733394, "timestamp": "2025-12-10T09:57:45.093611+00:00", "meta": {"OBJECT_NAME": "COSMOS 2251 DEB", "OBJECT_ID": "1993-036AFV", "EPOCH": "2025-12-09T15:42:21.613248", "MEAN_MOTION": 14.45493878, "ECCENTRICITY": 0.0097903, "INCLINATION": 73.8812, "RA_OF_ASC_NODE": 317.0047, "ARG_OF_PERICENTER": 292.5764, "MEAN_ANOMALY": 66.5057, "EPHEMERIS_TYPE": 0, "CLASSIFICATION_TYPE": "U", "NORAD_CAT_ID": 34997, "ELEMENT_SET_NO": 999, "REV_AT_EPOCH": 70702, "BSTAR": 0.0029443, "MEAN_MOTION_DOT": 0.00010999, "MEAN_MOTION_DDOT": 0}, "tle": {"line1": "1 34997U 93036AFV 25343.65441682  .00010999  00000+0  29443-2 0  9997", "line2": "2 34997  73.8812 317.0047 0097903 292.5764  66.5057 14.45493878707026"}}, "geometry": {"type": "Point", "coordinates": [-45.295045992153696, -3.0006520711243736]}}, {"type": "Feature", "properties": {"norad_id": 34998, "name": "COSMOS 2251 DEB", "group": "cosmos-2251-debris", "lat": -22.885075352050684, "lon": -8.69634064194622, "alt_km": 737.2486463758869, "timestamp": "2025-12-10T09:57:45.093621+00:00", "meta": {"OBJECT_NAME": "COSMOS 2251 DEB", "OBJECT_ID": "1993-036AFW", "EPOCH": "2025-12-09T11:37:03.426816", "MEAN_MOTION": 14.4925952, "ECCENTRICITY": 0.00210124, "INCLINATION": 74.0095, "RA_OF_ASC_NODE": 166.0998, "ARG_OF_PERICENTER": 311.9127, "MEAN_ANOMALY": 76.4992, "EPHEMERIS_TYPE": 0, "CLASSIFICATION_TYPE": "U", "NORAD_CAT_ID": 34998, "ELEMENT_SET_NO": 999, "REV_AT_EPOCH": 87373, "BSTAR": 0.00089460042, "MEAN_MOTION_DOT": 3.394e-05, "MEAN_MOTION_DDOT": 0}, "tle": {"line1": "1 34998U 93036AFW 25343.48406744  .00003394  00000+0  89460-3 0  9996", "line2": "2 34998  74.0095 166.0998 0021012 311.9127  76.4992 14.49259520873735"}}, "geometry": {"type": "Point", "coordinates": [-8.69634064194622, -22.885075352050684]}}, {"type": "Feature", "properties": {"norad_id": 35000, "name": "COSMOS 2251 DEB", "group": "cosmos-2251-debris", "lat": 47.98368461004976, "lon": -138.12355411957742, "alt_km": 312.328913394078, "timestamp": "2025-12-10T09:57:45.093632+00:00", "meta": {"OBJECT_NAME": "COSMOS 2251 DEB", "OBJECT_ID": "1993-036AFY", "EPOCH": "2025-12-10T00:39:45.535104", "MEAN_MOTION": 15.84722247, "ECCENTRICITY": 0.0009699, "INCLINATION": 73.9939, "RA_OF_ASC_NODE": 204.1935, "ARG_OF_PERICENTER": 175.3945, "MEAN_ANOMALY": 184.7377, "EPHEMERIS_TYPE": 0, "CLASSIFICATION_TYPE": "U", "NORAD_CAT_ID": 35000, "ELEMENT_SET_NO": 999, "REV_AT_EPOCH": 88472, "BSTAR": 0.0078217, "MEAN_MOTION_DOT": 0.0209211, "MEAN_MOTION_DDOT": 0}, "tle": {"line1": "1 35000U 93036AFY 25344.02761036  .02092110  00000+0  78217-2 0  9993", "line2": "2 35000  73.9939 204.1935 0009699 175.3945 184.7377 15.84722247884729"}}, "geometry": {"type": "Point", "coordinates": [-138.12355411957742, 47.98368461004976]}}, {"type": "Feature", "properties": {"norad_id": 35012, "name": "COSMOS 2251 DEB", "group": "cosmos-2251-debris", "lat": -26.853851856375396, "lon": -55.58160035203685, "alt_km": 706.9962263399666, "timestamp": "2025-12-10T09:57:45.093642+00:00", "meta": {"OBJECT_NAME": "COSMOS 2251 DEB", "OBJECT_ID": "1993-036AFZ", "EPOCH": "2025-12-08T15:28:21.216000", "MEAN_MOTION": 14.45541006, "ECCENTRICITY": 0.0081671, "INCLINATION": 74.0195, "RA_OF_ASC_NODE": 119.3789, "ARG_OF_PERICENTER": 260.3937, "MEAN_ANOMALY": 98.7986, "EPHEMERIS_TYPE": 0, "CLASSIFICATION_TYPE": "U", "NORAD_CAT_ID": 35012, "ELEMENT_SET_NO": 999, "REV_AT_EPOCH": 87502, "BSTAR": 0.00034789, "MEAN_MOTION_DOT": 1.25e-05, "MEAN_MOTION_DDOT": 0}, "tle": {"line1": "1 35012U 93036AFZ 25342.64469000  .00001250  00000+0  34789-3 0  9998", "line2": "2 35012  74.0195 119.3789 0081671 260.3937  98.7986 14.45541006875029"}}, "geometry": {"type": "Point", "coordinates": [-55.58160035203685, -26.853851856375396]}}, {"type": "Feature", "properties": {"norad_id": 35014, "name": "COSMOS 2251 DEB", "group": "cosmos-2251-debris", "lat": 62.69274981183815, "lon": 81.85733796696574, "alt_km": 643.2082167466078, "timestamp": "2025-12-10T09:57:45.093652+00:00", "meta": {"OBJECT_NAME": "COSMOS 2251 DEB", "OBJECT_ID": "1993-036AGB", "EPOCH": "2025-12-09T10:52:08.890752", "MEAN_MOTION": 14.750757, "ECCENTRICITY": 0.00075732, "INCLINATION": 73.999, "RA_OF_ASC_NODE": 49.9759, "ARG_OF_PERICENTER": 225.5401, "MEAN_ANOMALY": 134.5154, "EPHEMERIS_TYPE": 0, "CLASSIFICATION_TYPE": "U", "NORAD_CAT_ID": 35014, "ELEMENT_SET_NO": 999, "REV_AT_EPOCH": 71288, "BSTAR": 0.002262508, "MEAN_MOTION_DOT": 0.00015258, "MEAN_MOTION_DDOT": 0}, "tle": {"line1": "1 35014U 93036AGB 25343.45288068  .00015258  00000+0  22625-2 0  9991", "line2": "2 35014  73.9990  49.9759 0007573 225.5401 134.5154 14.75075700712881"}}, "geometry": {"type": "Point", "coordinates": [81.85733796696574, 62.69274981183815]}}, {"type": "Feature", "properties": {"norad_id": 35015, "name": "COSMOS 2251 DEB", "group": "cosmos-2251-debris", "lat": -26.233557388054724, "lon": -129.06284960306942, "alt_km": 778.9899392163561, "timestamp": "2025-12-10T09:57:45.093662+00:00", "meta": {"OBJECT_NAME": "COSMOS 2251 DEB", "OBJECT_ID": "1993-036AGC", "EPOCH": "2025-12-08T23:19:05.687904", "MEAN_MOTION": 14.46841193, "ECCENTRICITY": 0.0074204, "INCLINATION": 73.9478, "RA_OF_ASC_NODE": 241.8046, "ARG_OF_PERICENTER": 111.6456, "MEAN_ANOMALY": 265.9615, "EPHEMERIS_TYPE": 0, "CLASSIFICATION_TYPE": "U", "NORAD_CAT_ID": 35015, "ELEMENT_SET_NO": 999, "REV_AT_EPOCH": 65386, "BSTAR": 0.00095869, "MEAN_MOTION_DOT": 3.57e-05, "MEAN_MOTION_DDOT": 0}, "tle": {"line1": "1 35015U 93036AGC 25342.97159361  .00003570  00000+0  95869-3 0  9996", "line2": "2 35015  73.9478 241.8046 0074204 111.6456 265.9615 14.46841193653863"}}, "geometry": {"type": "Point", "coordinates": [-129.06284960306942, -26.233557388054724]}}, {"type": "Feature", "properties": {"norad_id": 35016, "name": "COSMOS 2251 DEB", "group": "cosmos-2251-debris", "lat": 73.66472537307705, "lon": 39.128690028063986, "alt_km": 811.8219842394838, "timestamp": "2025-12-10T09:57:45.093672+00:00", "meta": {"OBJECT_NAME": "COSMOS 2251 DEB", "OBJECT_ID": "1993-036AGD", "EPOCH": "2025-12-08T20:51:00.921024", "MEAN_MOTION": 14.35049629, "ECCENTRICITY": 0.01147104, "INCLINATION": 73.9297, "RA_OF_ASC_NODE": 301.5659, "ARG_OF_PERICENTER": 219.3565, "MEAN_ANOMALY": 169.132, "EPHEMERIS_TYPE": 0, "CLASSIFICATION_TYPE": "U", "NORAD_CAT_ID": 35016, "ELEMENT_SET_NO": 999, "REV_AT_EPOCH": 86727, "BSTAR": 0.00068117293, "MEAN_MOTION_DOT": 2.064e-05, "MEAN_MOTION_DDOT": 0}, "tle": {"line1": "1 35016U 93036AGD 25342.86876066  .00002064  00000+0  68117-3 0  9996", "line2": "2 35016  73.9297 301.5659 0114710 219.3565 169.1320 14.35049629867273"}}, "geometry": {"type": "Point", "coordinates": [39.128690028063986, 73.66472537307705]}}]}